start=new Date('2022-08-20T00:00:00.000Z').valueOf();
sats=[{"DECAY_DATE":null,"APOAPSIS":"540.826","PERIOD":"95.437","OBJECT_TYPE":"PAYLOAD","OBJECT_ID":"2022-005AL","RA_OF_ASC_NODE":"7.2768","EPHEMERIS_TYPE":"0","INCLINATION":"53.2185","TLE_LINE1":"1 51138U 22005AL  22231.41845933  .00001542  00000-0  11491-3 0  9995","BSTAR":"0.00011491000000","NORAD_CAT_ID":"51138","RCS_SIZE":"LARGE","TIME_SYSTEM":"UTC","MEAN_ELEMENT_THEORY":"SGP4","TLE_LINE2":"2 51138  53.2185   7.2768 0001586  52.4059 307.7077 15.08845511 32733","ECCENTRICITY":"0.00015860","COUNTRY_CODE":"US","SEMIMAJOR_AXIS":"6917.864","MEAN_MOTION_DDOT":"0.0000000000000","MEAN_MOTION_DOT":"0.00001542","CENTER_NAME":"EARTH","CLASSIFICATION_TYPE":"U","MEAN_MOTION":"15.08845511","ELEMENT_SET_NO":"999","REF_FRAME":"TEME","GP_ID":"210518530","MEAN_ANOMALY":"307.7077","OBJECT_NAME":"STARLINK-3177","REV_AT_EPOCH":"3273","LAUNCH_DATE":"2022-01-19","PERIAPSIS":"538.631","ARG_OF_PERICENTER":"52.4059","EPOCH":"2022-08-19T10:02:34.886112","FILE":"3540406","SITE":"AFETR"},{"ECCENTRICITY":"0.00016250","COUNTRY_CODE":"US","RCS_SIZE":"LARGE","NORAD_CAT_ID":"51139","TLE_LINE1":"1 51139U 22005AM  22231.86742168 -.00000153  00000-0  84793-5 0  9996","BSTAR":"0.00000847930000","TIME_SYSTEM":"UTC","MEAN_ELEMENT_THEORY":"SGP4","TLE_LINE2":"2 51139  53.2184   5.2708 0001625  58.4193 301.6957 15.08844111 32818","RA_OF_ASC_NODE":"5.2708","EPHEMERIS_TYPE":"0","OBJECT_ID":"2022-005AM","INCLINATION":"53.2184","PERIOD":"95.437","DECAY_DATE":null,"APOAPSIS":"540.857","OBJECT_TYPE":"PAYLOAD","ARG_OF_PERICENTER":"58.4193","PERIAPSIS":"538.609","FILE":"3540705","SITE":"AFETR","EPOCH":"2022-08-19T20:49:05.233152","ELEMENT_SET_NO":"999","REF_FRAME":"TEME","MEAN_MOTION":"15.08844111","OBJECT_NAME":"STARLINK-3172","REV_AT_EPOCH":"3281","LAUNCH_DATE":"2022-01-19","MEAN_ANOMALY":"301.6957","GP_ID":"210549095","MEAN_MOTION_DOT":"-0.00000153","CENTER_NAME":"EARTH","CLASSIFICATION_TYPE":"U","MEAN_MOTION_DDOT":"0.0000000000000","SEMIMAJOR_AXIS":"6917.868"},{"CENTER_NAME":"EARTH","CLASSIFICATION_TYPE":"U","MEAN_MOTION_DOT":"0.00005925","MEAN_MOTION_DDOT":"0.0000000000000","SEMIMAJOR_AXIS":"6917.833","FILE":"3540406","SITE":"AFETR","EPOCH":"2022-08-19T02:00:21.710304","ARG_OF_PERICENTER":"60.7890","PERIAPSIS":"538.627","REV_AT_EPOCH":"3269","OBJECT_NAME":"STARLINK-3175","LAUNCH_DATE":"2022-01-19","GP_ID":"210517041","MEAN_ANOMALY":"299.3257","ELEMENT_SET_NO":"999","REF_FRAME":"TEME","MEAN_MOTION":"15.08855611","INCLINATION":"53.2181","EPHEMERIS_TYPE":"0","RA_OF_ASC_NODE":"8.7901","OBJECT_ID":"2022-005AN","OBJECT_TYPE":"PAYLOAD","PERIOD":"95.437","DECAY_DATE":null,"APOAPSIS":"540.768","ECCENTRICITY":"0.00015470","COUNTRY_CODE":"US","TIME_SYSTEM":"UTC","TLE_LINE2":"2 51140  53.2181   8.7901 0001547  60.7890 299.3257 15.08855611 32692","MEAN_ELEMENT_THEORY":"SGP4","RCS_SIZE":"LARGE","NORAD_CAT_ID":"51140","TLE_LINE1":"1 51140U 22005AN  22231.08358461  .00005925  00000-0  38991-3 0  9999","BSTAR":"0.00038991000000"},{"ELEMENT_SET_NO":"999","REF_FRAME":"TEME","MEAN_MOTION":"15.08842619","OBJECT_NAME":"STARLINK-3179","REV_AT_EPOCH":"3277","LAUNCH_DATE":"2022-01-19","MEAN_ANOMALY":"299.8741","GP_ID":"210547594","ARG_OF_PERICENTER":"60.2402","PERIAPSIS":"538.692","FILE":"3540705","SITE":"AFETR","EPOCH":"2022-08-19T14:16:56.656416","MEAN_MOTION_DDOT":"0.0000000000000","SEMIMAJOR_AXIS":"6917.872","MEAN_MOTION_DOT":"0.00000948","CENTER_NAME":"EARTH","CLASSIFICATION_TYPE":"U","NORAD_CAT_ID":"51141","RCS_SIZE":"LARGE","BSTAR":"0.00007761600000","TLE_LINE1":"1 51141U 22005AP  22231.59510019  .00000948  00000-0  77616-4 0  9993","TIME_SYSTEM":"UTC","MEAN_ELEMENT_THEORY":"SGP4","TLE_LINE2":"2 51141  53.2206   6.4999 0001511  60.2402 299.8741 15.08842619 32774","ECCENTRICITY":"0.00015110","COUNTRY_CODE":"US","PERIOD":"95.437","DECAY_DATE":null,"APOAPSIS":"540.783","OBJECT_TYPE":"PAYLOAD","EPHEMERIS_TYPE":"0","RA_OF_ASC_NODE":"6.4999","OBJECT_ID":"2022-005AP","INCLINATION":"53.2206"},{"FILE":"3540705","SITE":"AFETR","EPOCH":"2022-08-19T22:00:00.999936","ARG_OF_PERICENTER":"47.2726","PERIAPSIS":"538.572","REV_AT_EPOCH":"130","OBJECT_NAME":"STARLINK-3369","LAUNCH_DATE":"2022-01-19","GP_ID":"210548344","MEAN_ANOMALY":"290.3582","ELEMENT_SET_NO":"999","REF_FRAME":"TEME","MEAN_MOTION":"15.08827276","CENTER_NAME":"EARTH","CLASSIFICATION_TYPE":"U","MEAN_MOTION_DOT":"-0.00009907","MEAN_MOTION_DDOT":"0.0000000000000","SEMIMAJOR_AXIS":"6917.919","ECCENTRICITY":"0.00017520","COUNTRY_CODE":"US","TIME_SYSTEM":"UTC","MEAN_ELEMENT_THEORY":"SGP4","TLE_LINE2":"2 51142  53.2171 355.0592 0001752  47.2726 290.3582 15.08827276  1305","RCS_SIZE":"LARGE","NORAD_CAT_ID":"51142","BSTAR":"-0.00060542000000","TLE_LINE1":"1 51142U 22005AQ  22231.91667824 -.00009907  00000-0 -60542-3 0  9992","INCLINATION":"53.2171","EPHEMERIS_TYPE":"0","RA_OF_ASC_NODE":"355.0592","OBJECT_ID":"2022-005AQ","OBJECT_TYPE":"PAYLOAD","PERIOD":"95.438","DECAY_DATE":null,"APOAPSIS":"540.996"},{"EPHEMERIS_TYPE":"0","RA_OF_ASC_NODE":"18.6607","OBJECT_ID":"2022-005AR","INCLINATION":"53.2176","PERIOD":"95.437","DECAY_DATE":null,"APOAPSIS":"540.785","OBJECT_TYPE":"PAYLOAD","ECCENTRICITY":"0.00015310","COUNTRY_CODE":"US","RCS_SIZE":"LARGE","NORAD_CAT_ID":"51143","BSTAR":"0.00013908000000","TLE_LINE1":"1 51143U 22005AR  22231.11578570  .00001927  00000-0  13908-3 0  9990","TIME_SYSTEM":"UTC","MEAN_ELEMENT_THEORY":"SGP4","TLE_LINE2":"2 51143  53.2176  18.6607 0001531  82.9280 277.1887 15.08846362 32555","MEAN_MOTION_DOT":"0.00001927","CENTER_NAME":"EARTH","CLASSIFICATION_TYPE":"U","MEAN_MOTION_DDOT":"0.0000000000000","SEMIMAJOR_AXIS":"6917.861","ARG_OF_PERICENTER":"82.9280","PERIAPSIS":"538.667","SITE":"AFETR","FILE":"3540406","EPOCH":"2022-08-19T02:46:43.884480","ELEMENT_SET_NO":"999","REF_FRAME":"TEME","MEAN_MOTION":"15.08846362","REV_AT_EPOCH":"3255","OBJECT_NAME":"STARLINK-3184","LAUNCH_DATE":"2022-01-19","GP_ID":"210517291","MEAN_ANOMALY":"277.1887"},{"SEMIMAJOR_AXIS":"6917.890","MEAN_MOTION_DDOT":"0.0000000000000","CLASSIFICATION_TYPE":"U","CENTER_NAME":"EARTH","MEAN_MOTION_DOT":"0.00000749","MEAN_ANOMALY":"301.2643","GP_ID":"210548847","LAUNCH_DATE":"2022-01-19","OBJECT_NAME":"STARLINK-3185","REV_AT_EPOCH":"3277","MEAN_MOTION":"15.08836746","ELEMENT_SET_NO":"999","REF_FRAME":"TEME","EPOCH":"2022-08-19T14:22:15.074976","SITE":"AFETR","FILE":"3540705","PERIAPSIS":"538.714","ARG_OF_PERICENTER":"58.8497","OBJECT_TYPE":"PAYLOAD","APOAPSIS":"540.796","DECAY_DATE":null,"PERIOD":"95.438","INCLINATION":"53.2198","OBJECT_ID":"2022-005AS","EPHEMERIS_TYPE":"0","RA_OF_ASC_NODE":"6.4795","TLE_LINE2":"2 51144  53.2198   6.4795 0001505  58.8497 301.2643 15.08836746 32774","MEAN_ELEMENT_THEORY":"SGP4","TIME_SYSTEM":"UTC","TLE_LINE1":"1 51144U 22005AS  22231.59878559  .00000749  00000-0  65174-4 0  9997","BSTAR":"0.00006517400000","NORAD_CAT_ID":"51144","RCS_SIZE":"LARGE","COUNTRY_CODE":"US","ECCENTRICITY":"0.00015050"},{"TLE_LINE1":"1 51145U 22005AT  22231.84075109  .00000102  00000-0  24496-4 0  9991","BSTAR":"0.00002449600000","RCS_SIZE":"LARGE","NORAD_CAT_ID":"51145","TIME_SYSTEM":"UTC","TLE_LINE2":"2 51145  53.2178  15.4032 0001460  86.0938 274.0221 15.08837406 32661","MEAN_ELEMENT_THEORY":"SGP4","ECCENTRICITY":"0.00014600","COUNTRY_CODE":"US","DECAY_DATE":null,"APOAPSIS":"540.763","PERIOD":"95.438","OBJECT_TYPE":"PAYLOAD","OBJECT_ID":"2022-005AT","RA_OF_ASC_NODE":"15.4032","EPHEMERIS_TYPE":"0","INCLINATION":"53.2178","MEAN_MOTION":"15.08837406","ELEMENT_SET_NO":"999","REF_FRAME":"TEME","MEAN_ANOMALY":"274.0221","GP_ID":"210548094","OBJECT_NAME":"STARLINK-3365","REV_AT_EPOCH":"3266","LAUNCH_DATE":"2022-01-19","PERIAPSIS":"538.743","ARG_OF_PERICENTER":"86.0938","EPOCH":"2022-08-19T20:10:40.894176","SITE":"AFETR","FILE":"3540705","SEMIMAJOR_AXIS":"6917.888","MEAN_MOTION_DDOT":"0.0000000000000","MEAN_MOTION_DOT":"0.00000102","CENTER_NAME":"EARTH","CLASSIFICATION_TYPE":"U"},{"OBJECT_TYPE":"PAYLOAD","PERIOD":"95.438","APOAPSIS":"540.806","DECAY_DATE":null,"INCLINATION":"53.2195","RA_OF_ASC_NODE":"5.2538","EPHEMERIS_TYPE":"0","OBJECT_ID":"2022-005AU","MEAN_ELEMENT_THEORY":"SGP4","TLE_LINE2":"2 51146  53.2195   5.2538 0001501  52.5551 307.5577 15.08832663 32806","TIME_SYSTEM":"UTC","RCS_SIZE":"LARGE","NORAD_CAT_ID":"51146","TLE_LINE1":"1 51146U 22005AU  22231.87110667 -.00002103  00000-0 -11407-3 0  9996","BSTAR":"-0.00011407000000","COUNTRY_CODE":"US","ECCENTRICITY":"0.00015010","MEAN_MOTION_DDOT":"0.0000000000000","SEMIMAJOR_AXIS":"6917.903","CLASSIFICATION_TYPE":"U","CENTER_NAME":"EARTH","MEAN_MOTION_DOT":"-0.00002103","LAUNCH_DATE":"2022-01-19","OBJECT_NAME":"STARLINK-3354","REV_AT_EPOCH":"3280","GP_ID":"210547845","MEAN_ANOMALY":"307.5577","ELEMENT_SET_NO":"999","REF_FRAME":"TEME","MEAN_MOTION":"15.08832663","FILE":"3540705","SITE":"AFETR","EPOCH":"2022-08-19T20:54:23.616288","ARG_OF_PERICENTER":"52.5551","PERIAPSIS":"538.729"},{"PERIAPSIS":"538.666","ARG_OF_PERICENTER":"68.2722","EPOCH":"2022-08-18T17:19:42.991104","FILE":"3539615","SITE":"AFETR","MEAN_MOTION":"15.08843631","ELEMENT_SET_NO":"999","REF_FRAME":"TEME","GP_ID":"210477195","MEAN_ANOMALY":"291.8434","REV_AT_EPOCH":"3249","OBJECT_NAME":"STARLINK-3352","LAUNCH_DATE":"2022-01-19","MEAN_MOTION_DOT":"0.00000280","CENTER_NAME":"EARTH","CLASSIFICATION_TYPE":"U","SEMIMAJOR_AXIS":"6917.869","MEAN_MOTION_DDOT":"0.0000000000000","ECCENTRICITY":"0.00015440","COUNTRY_CODE":"US","TLE_LINE1":"1 51147U 22005AV  22230.72202536  .00000280  00000-0  35712-4 0  9995","BSTAR":"0.00003571200000","RCS_SIZE":"LARGE","NORAD_CAT_ID":"51147","TIME_SYSTEM":"UTC","MEAN_ELEMENT_THEORY":"SGP4","TLE_LINE2":"2 51147  53.2183  20.4228 0001544  68.2722 291.8434 15.08843631 32499","OBJECT_ID":"2022-005AV","RA_OF_ASC_NODE":"20.4228","EPHEMERIS_TYPE":"0","INCLINATION":"53.2183","DECAY_DATE":null,"APOAPSIS":"540.802","PERIOD":"95.437","OBJECT_TYPE":"PAYLOAD"}];
